{
  "64244": {
    "noradId": "64244",
    "tle": [
      "1 64244C 25119M   26052.17201389 -.00059442  00000+0 -46239-3 0   526",
      "2 64244  43.0002 308.8875 0001807 262.7750 129.8677 15.70860514    13"
    ]
  },
  "64245": {
    "noradId": "64245",
    "tle": [
      "1 64245C 25119N   26052.16993056 -.00039159  00000+0 -30419-3 0   521",
      "2 64245  43.0003 308.4516 0001530 261.9947 299.0962 15.70873769    18"
    ]
  },
  "64246": {
    "noradId": "64246",
    "tle": [
      "1 64246C 25119P   26052.11923611 -.00009870  00000+0 -35755-3 0   522",
      "2 64246  43.0022  40.5428 0001412 275.3035 174.7699 15.27583895    18"
    ]
  },
  "64247": {
    "noradId": "64247",
    "tle": [
      "1 64247C 25119Q   26052.13798611 -.00004058  00000+0 -14700-3 0   525",
      "2 64247  43.0039  40.2313 0001347 263.9265  14.2895 15.27580285    18"
    ]
  },
  "64248": {
    "noradId": "64248",
    "tle": [
      "1 64248C 25119R   26052.12062500 -.00000380  00000+0 -13780-4 0   528",
      "2 64248  43.0007  40.6657 0001340 264.9110 136.2344 15.27575928    14"
    ]
  },
  "64249": {
    "noradId": "64249",
    "tle": [
      "1 64249C 25119S   26052.11506944 -.00003190  00000+0 -11555-3 0   522",
      "2 64249  43.0042  40.4597 0001454 269.1110 200.4738 15.27582377    15"
    ]
  },
  "64250": {
    "noradId": "64250",
    "tle": [
      "1 64250C 25119T   26052.11784722 -.00017234  00000+0 -62427-3 0   524",
      "2 64250  43.0016  40.9251 0001224 263.4111  23.3806 15.27593873    14"
    ]
  },
  "64251": {
    "noradId": "64251",
    "tle": [
      "1 64251C 25119U   26052.11437500 -.00001341  00000+0 -48582-4 0   523",
      "2 64251  43.0040  40.4178 0001413 266.0748 220.9058 15.27580074    13"
    ]
  },
  "64252": {
    "noradId": "64252",
    "tle": [
      "1 64252C 25119V   26052.11993056  .00005862  00000+0  21237-3 0   524",
      "2 64252  43.0005  40.6204 0001150 272.5968 145.9635 15.27562778    19"
    ]
  },
  "64253": {
    "noradId": "64253",
    "tle": [
      "1 64253C 25119W   26052.14493056 -.00002941  00000+0 -10654-3 0   521",
      "2 64253  43.0010  40.6840 0001423 259.9097 211.3845 15.27575151    17"
    ]
  },
  "64254": {
    "noradId": "64254",
    "tle": [
      "1 64254C 25119X   26052.11506944 -.00053620  00000+0 -19418-2 0   526",
      "2 64254  43.0028  40.9870 0001299 271.8277 338.4299 15.27637866    13"
    ]
  },
  "64255": {
    "noradId": "64255",
    "tle": [
      "1 64255C 25119Y   26052.11437500 -.00004483  00000+0 -16237-3 0   528",
      "2 64255  43.0034  41.0394 0001118 269.9705 315.2639 15.27580767    16"
    ]
  },
  "64256": {
    "noradId": "64256",
    "tle": [
      "1 64256C 25120A   26052.11993056 -.00005298  00000+0 -17852-3 0   523",
      "2 64256  53.1585 193.4860 0001266  87.2567 203.5086 15.30201404    18"
    ]
  },
  "64257": {
    "noradId": "64257",
    "tle": [
      "1 64257C 25120B   26052.11923611 -.00005757  00000+0 -19404-3 0   529",
      "2 64257  53.1567 193.7032 0001166  86.3108  90.1171 15.30197798    18"
    ]
  },
  "64258": {
    "noradId": "64258",
    "tle": [
      "1 64258C 25120C   26052.11645833 -.00008434  00000+0 -28429-3 0   529",
      "2 64258  53.1572 193.5804 0001076  81.3928 149.5309 15.30197977    16"
    ]
  },
  "64259": {
    "noradId": "64259",
    "tle": [
      "1 64259C 25120D   26052.11923611 -.00006662  00000+0 -22450-3 0   522",
      "2 64259  53.1598 193.4028 0001255  86.6594 240.9993 15.30202324    16"
    ]
  },
  "64260": {
    "noradId": "64260",
    "tle": [
      "1 64260C 25120E   26052.11298611 -.00011018  00000+0 -37134-3 0   525",
      "2 64260  53.1571 193.6283 0001087  86.4283 107.9016 15.30204217    11"
    ]
  },
  "64261": {
    "noradId": "64261",
    "tle": [
      "1 64261C 25120F   26052.11506944 -.00009089  00000+0 -30637-3 0   523",
      "2 64261  53.1570 193.6554 0001114  89.3659  98.9997 15.30198059    15"
    ]
  },
  "64262": {
    "noradId": "64262",
    "tle": [
      "1 64262C 25120G   26052.11576389 -.00019128  00000+0 -64412-3 0   527",
      "2 64262  53.1594 193.9221 0001338  89.6345 322.9561 15.30239675    16"
    ]
  },
  "64263": {
    "noradId": "64263",
    "tle": [
      "1 64263C 25120H   26052.11437500 -.00010261  00000+0 -34585-3 0   526",
      "2 64263  53.1576 193.5545 0001234  75.4130 161.4789 15.30200148    13"
    ]
  },
  "64264": {
    "noradId": "64264",
    "tle": [
      "1 64264C 25120J   26052.11298611 -.00004883  00000+0 -16454-3 0   523",
      "2 64264  53.1600 193.4111 0001282  85.4532 219.3898 15.30200351    10"
    ]
  },
  "64265": {
    "noradId": "64265",
    "tle": [
      "1 64265C 25120K   26052.11784722 -.00004179  00000+0 -14083-3 0   521",
      "2 64265  53.1604 194.0288 0001277  86.3350 279.5855 15.30196456    10"
    ]
  },
  "64266": {
    "noradId": "64266",
    "tle": [
      "1 64266C 25120L   26052.11645833 -.00011361  00000+0 -38283-3 0   520",
      "2 64266  53.1587 193.8625 0001247  83.3867   2.0994 15.30210012    18"
    ]
  },
  "64267": {
    "noradId": "64267",
    "tle": [
      "1 64267C 25120M   26052.11784722 -.00005565  00000+0 -18754-3 0   522",
      "2 64267  53.1591 193.4317 0001229  86.5184 221.8601 15.30197695    12"
    ]
  },
  "64268": {
    "noradId": "64268",
    "tle": [
      "1 64268C 25120N   26052.11576389 -.00012299  00000+0 -41451-3 0   523",
      "2 64268  53.1569 193.6350 0001212  86.7934 111.2171 15.30205123    14"
    ]
  },
  "64269": {
    "noradId": "64269",
    "tle": [
      "1 64269C 25120P   26052.11993056 -.00007769  00000+0 -26179-3 0   524",
      "2 64269  53.1586 193.4600 0001271  84.6016 217.7981 15.30204007    14"
    ]
  },
  "64270": {
    "noradId": "64270",
    "tle": [
      "1 64270C 25120Q   26052.11854167 -.00000637  00000+0 -21459-4 0   529",
      "2 64270  53.1599 193.9426 0001145  64.6020 345.8466 15.30198061    17"
    ]
  },
  "64271": {
    "noradId": "64271",
    "tle": [
      "1 64271C 25120R   26052.11645833 -.00004013  00000+0 -13525-3 0   524",
      "2 64271  53.1570 193.7496 0001200  88.9260  54.7369 15.30198803    11"
    ]
  },
  "64272": {
    "noradId": "64272",
    "tle": [
      "1 64272C 25120S   26052.11715278 -.00002132  00000+0 -71835-4 0   525",
      "2 64272  53.1604 193.9986 0001341  86.1163 293.4064 15.30200874    10"
    ]
  },
  "64273": {
    "noradId": "64273",
    "tle": [
      "1 64273C 25120T   26052.11645833 -.00003418  00000+0 -11517-3 0   523",
      "2 64273  53.1603 193.3570 0001300  83.4770 257.9475 15.30200226    14"
    ]
  },
  "64274": {
    "noradId": "64274",
    "tle": [
      "1 64274C 25120U   26052.11993056 -.00001391  00000+0 -46821-4 0   522",
      "2 64274  53.1598 193.9158 0000959  63.3853   6.2350 15.30226586    18"
    ]
  },
  "64275": {
    "noradId": "64275",
    "tle": [
      "1 64275C 25120V   26052.11993056 -.00008539  00000+0 -28779-3 0   525",
      "2 64275  53.1600 193.9490 0001113  76.8320 335.4650 15.30201594    15"
    ]
  },
  "64276": {
    "noradId": "64276",
    "tle": [
      "1 64276C 25120W   26052.11437500 -.00007483  00000+0 -25217-3 0   524",
      "2 64276  53.1582 193.5152 0001229  86.3991 167.9380 15.30202005    10"
    ]
  },
  "64277": {
    "noradId": "64277",
    "tle": [
      "1 64277C 25120X   26052.11506944 -.00002568  00000+0 -86559-4 0   520",
      "2 64277  53.1577 193.7985 0001167  86.7489  26.0103 15.30194517    14"
    ]
  },
  "64278": {
    "noradId": "64278",
    "tle": [
      "1 64278C 25120Y   26052.11854167 -.00001547  00000+0 -52129-4 0   526",
      "2 64278  53.1593 193.8863 0001283  85.8095 353.7144 15.30201824    16"
    ]
  },
  "64279": {
    "noradId": "64279",
    "tle": [
      "1 64279C 25120Z   26052.11715278 -.00091571  00000+0 -30836-2 0   521",
      "2 64279  53.1575 193.5577 0001077  93.4762 147.0597 15.30311028    17"
    ]
  },
  "64280": {
    "noradId": "64280",
    "tle": [
      "1 64280C 25120AA  26052.11368056 -.00002084  00000+0 -70198-4 0   529",
      "2 64280  53.1582 193.8600 0001245  89.7660 346.2408 15.30207888    11"
    ]
  },
  "64281": {
    "noradId": "64281",
    "tle": [
      "1 64281C 25120AB  26052.11368056 -.00003806  00000+0 -12825-3 0   525",
      "2 64281  53.1567 193.6896 0001131  91.4642  71.7900 15.30199404    15"
    ]
  },
  "64282": {
    "noradId": "64282",
    "tle": [
      "1 64282C 25120AC  26052.11506944 -.00052963  00000+0 -17837-2 0   521",
      "2 64282  53.1574 193.7737 0000996  82.0074  42.3335 15.30268719    14"
    ]
  },
  "64291": {
    "noradId": "64291",
    "tle": [
      "1 64291C 25123A   26052.11368056  .00006870  00000+0  57583-3 0   521",
      "2 64291  70.0005 236.2628 0002682 273.4349 148.2745 14.98315097    14"
    ]
  },
  "64292": {
    "noradId": "64292",
    "tle": [
      "1 64292C 25123B   26052.11576389  .00006764  00000+0  56679-3 0   529",
      "2 64292  70.0002 236.3301 0003087 269.9473  96.3555 14.98328929    19"
    ]
  },
  "64293": {
    "noradId": "64293",
    "tle": [
      "1 64293C 25123C   26052.11715278  .00005785  00000+0  48465-3 0   528",
      "2 64293  70.0011 236.1207 0003018 272.1628 281.6106 14.98334504    12"
    ]
  },
  "64294": {
    "noradId": "64294",
    "tle": [
      "1 64294C 25123D   26052.11854167  .00006288  00000+0  52691-3 0   525",
      "2 64294  70.0008 236.3665 0003189 270.0501  65.3373 14.98326875    10"
    ]
  },
  "64295": {
    "noradId": "64295",
    "tle": [
      "1 64295C 25123E   26052.11923611  .00005145  00000+0  43132-3 0   528",
      "2 64295  70.0003 236.4102 0003102 273.0037  22.0023 14.98309096    13"
    ]
  },
  "64296": {
    "noradId": "64296",
    "tle": [
      "1 64296C 25123F   26052.11437500  .00006308  00000+0  52858-3 0   523",
      "2 64296  70.0012 236.2282 0002847 270.6163 178.2438 14.98326081    16"
    ]
  }
}